     2.10           N: GPS NAV DATA                         RINEX VERSION / TYPE
RTKCONV 2.4.2                           20150702 014156 UTC PGM / RUN BY / DATE 
log: D:\Work\SoftGPSSim\trajgen\rtk\rover.ubx               COMMENT             
format: u-blox                                              COMMENT             
                                                            END OF HEADER       
17 14 12 20  0  0  0.0 -.144933816046E-03 -.227373675443E-11  .000000000000E+00
     .260000000000E+02 -.591250000000E+02  .388194741298E-08 -.194252959219E+01
    -.304728746414E-05  .988844956737E-02  .118296593428E-04  .515369299889E+04
     .518400000000E+06  .203028321266E-06 -.568690999806E-01 -.763684511185E-07
     .971201777972E+00  .156531250000E+03 -.206928329238E+01 -.744602444252E-08
     .440375486264E-09  .000000000000E+00  .182300000000E+04  .000000000000E+00
     .485000000000E+01  .000000000000E+00 -.107102096081E-07  .260000000000E+02
     .518466000000E+06  .400000000000E+01
20 14 12 20  0  0  0.0  .269209500402E-03  .420641299570E-11  .000000000000E+00
     .117000000000E+03 -.258437500000E+02  .560380484954E-08  .128625710143E+00
    -.152923166752E-05  .580669869669E-02  .751018524170E-05  .515578671265E+04
     .518400000000E+06 -.223517417908E-07  .192543994118E+01  .465661287308E-07
     .926021286652E+00  .218031250000E+03  .123365536128E+01 -.854892752572E-08
    -.516450083648E-09  .000000000000E+00  .182300000000E+04  .000000000000E+00
     .485000000000E+01  .000000000000E+00 -.838190317154E-08  .117000000000E+03
     .518466000000E+06  .400000000000E+01
 6 14 12 20  0  0  0.0  .307881273329E-04  .818545231596E-11  .000000000000E+00
     .230000000000E+02  .163750000000E+02  .476305554324E-08 -.128531071632E+01
     .912696123123E-06  .550022465177E-03  .624358654022E-05  .515365166283E+04
     .518400000000E+06 -.130385160446E-07  .943624288779E+00 -.186264514923E-08
     .961292940818E+00  .258406250000E+03  .229191014520E+01 -.808069373619E-08
     .479305679291E-09  .000000000000E+00  .182300000000E+04  .000000000000E+00
     .485000000000E+01  .000000000000E+00  .465661287308E-08  .230000000000E+02
     .518466000000E+06  .400000000000E+01
10 14 12 20  0  0  0.0 -.154968351126E-03 -.159161572810E-11  .000000000000E+00
     .580000000000E+02 -.272500000000E+02  .527093384127E-08 -.886982818852E+00
    -.117719173431E-05  .144534236751E-01  .790506601334E-05  .515363725471E+04
     .518400000000E+06  .145286321640E-06  .200408517949E+01  .240281224251E-06
     .941160112994E+00  .215406250000E+03  .909732121012E+00 -.842213653008E-08
    -.542879755978E-09  .000000000000E+00  .182300000000E+04  .000000000000E+00
     .485000000000E+01  .000000000000E+00 -.279396772385E-08  .580000000000E+02
     .518466000000E+06  .400000000000E+01
28 14 12 20  0  0  0.0  .406486913562E-03  .261479726760E-11  .000000000000E+00
     .330000000000E+02 -.127750000000E+03  .404302555110E-08 -.116607683199E+01
    -.637024641037E-05  .197223023279E-01  .566989183426E-05  .515368548965E+04
     .518400000000E+06 -.137835741043E-06 -.108006546321E+01  .435858964920E-06
     .987961552656E+00  .284718750000E+03 -.169047108636E+01 -.817855495536E-08
    -.444661379074E-09  .000000000000E+00  .182300000000E+04  .000000000000E+00
     .485000000000E+01  .000000000000E+00 -.111758708954E-07  .330000000000E+02
     .518466000000E+06  .400000000000E+01
 9 14 12 20  0  0  0.0 -.318535603583E-04 -.966338120634E-11  .000000000000E+00
     .470000000000E+02  .112906250000E+03  .437911097898E-08 -.275253879948E+01
     .585243105888E-05  .216206186451E-03  .116303563118E-04  .515369471169E+04
     .518400000000E+06  .167638063431E-07  .303742251572E+01 -.111758708954E-07
     .959160503651E+00  .156125000000E+03  .260662251531E+01 -.785854162552E-08
    -.346443002170E-10  .000000000000E+00  .182300000000E+04  .000000000000E+00
     .485000000000E+01  .000000000000E+00  .465661287308E-09  .470000000000E+02
     .518466000000E+06  .400000000000E+01
 1 14 12 20  0  0  0.0 -.109937973320E-04  .341060513165E-12  .000000000000E+00
     .920000000000E+02  .183125000000E+02  .486413118202E-08  .206468198931E+01
     .942498445511E-06  .373082922306E-02  .576488673687E-05  .515366174698E+04
     .518400000000E+06 -.540167093277E-07  .952167247599E+00  .186264514923E-07
     .961377026423E+00  .266968750000E+03  .444935333708E+00 -.814641075928E-08
     .415017287136E-09  .000000000000E+00  .182300000000E+04  .000000000000E+00
     .485000000000E+01  .000000000000E+00  .512227416039E-08  .920000000000E+02
     .518466000000E+06  .400000000000E+01
 3 14 12 20  0  0  0.0  .880691222847E-04  .289901436190E-10  .000000000000E+00
     .700000000000E+02 -.204375000000E+02  .475769817723E-08 -.178871492992E+01
    -.130012631416E-05  .970319728367E-03  .826455652714E-05  .515378153992E+04
     .518400000000E+06  .782310962677E-07  .199297660615E+01 -.111758708954E-07
     .959058451948E+00  .219593750000E+03 -.300536842406E+01 -.802712007606E-08
    -.517164399116E-09  .000000000000E+00  .182300000000E+04  .000000000000E+00
     .485000000000E+01  .000000000000E+00  .512227416039E-08  .700000000000E+02
     .518466000000E+06  .400000000000E+01
23 14 12 20  0  0  0.0 -.756788067520E-04 -.272848410532E-11  .000000000000E+00
     .410000000000E+02  .120250000000E+03  .445161399902E-08  .304794581943E+01
     .613741576672E-05  .967817602213E-02  .114180147648E-04  .515370163155E+04
     .518400000000E+06 -.614672899246E-07  .304748172476E+01 -.104308128357E-06
     .950229191283E+00  .156000000000E+03 -.271676891930E+01 -.778032408173E-08
    -.275011455331E-10  .000000000000E+00  .182300000000E+04  .000000000000E+00
     .485000000000E+01  .000000000000E+00 -.195577740669E-07  .410000000000E+02
     .518466000000E+06  .400000000000E+01
 2 14 12 20  0  0  0.0  .536850653589E-03  .216004991671E-11  .000000000000E+00
     .550000000000E+02  .222812500000E+02  .512771358985E-08  .275926302782E+01
     .110082328320E-05  .140569622163E-01  .626407563686E-05  .515372654152E+04
     .518400000000E+06 -.186264514923E-07  .918037446345E+00 -.216066837311E-06
     .939991586697E+00  .245468750000E+03 -.235598690358E+01 -.807140763510E-08
     .525736184737E-09  .000000000000E+00  .182300000000E+04  .000000000000E+00
     .485000000000E+01  .000000000000E+00 -.200234353542E-07  .550000000000E+02
     .518466000000E+06  .400000000000E+01
32 14 12 20  0  0  0.0 -.266958028078E-03  .864019966684E-11  .000000000000E+00
     .620000000000E+02 -.159375000000E+02  .493841999073E-08  .200572766638E+01
    -.862404704094E-06  .114026300143E-01  .882335007191E-05  .515359904861E+04
     .518400000000E+06 -.111758708954E-07  .207691292072E+01  .257045030594E-06
     .946882744233E+00  .201125000000E+03 -.934417857112E-02 -.809605151876E-08
    -.641455290616E-09  .000000000000E+00  .182300000000E+04  .000000000000E+00
     .485000000000E+01  .000000000000E+00 -.279396772385E-08  .620000000000E+02
     .518466000000E+06  .400000000000E+01
11 14 12 20  0  0  0.0 -.544835347682E-03 -.272848410532E-11  .000000000000E+00
     .570000000000E+02  .253750000000E+02  .628990485693E-08  .162631894235E+01
     .109151005745E-05  .156167325331E-01  .749900937080E-05  .515371329117E+04
     .518400000000E+06 -.894069671631E-07  .613009017532E+00 -.385567545891E-06
     .892024256917E+00  .198343750000E+03  .137059164717E+01 -.886715506689E-08
     .649312760768E-09  .000000000000E+00  .182300000000E+04  .000000000000E+00
     .485000000000E+01  .000000000000E+00 -.116415321827E-07  .570000000000E+02
     .518466000000E+06  .400000000000E+01
12 14 12 20  0  0  0.0  .254871323705E-03  .272848410532E-11  .000000000000E+00
     .106000000000E+03 -.117468750000E+03  .394516433193E-08  .111631735295E+01
    -.615417957306E-05  .505860964768E-02  .452436506748E-05  .515376680946E+04
     .518400000000E+06 -.540167093277E-07 -.110425023618E+01  .409781932831E-07
     .988803748742E+00  .307187500000E+03  .500154452275E+00 -.797176062726E-08
    -.418231706744E-09  .000000000000E+00  .182300000000E+04  .000000000000E+00
     .485000000000E+01  .000000000000E+00 -.116415321827E-07  .106000000000E+03
     .518466000000E+06  .400000000000E+01
